     2.100          NAVIGATION                              RINEX VERSION / TYPE
fic2rin                                 01/19/2018 00:08:14 PGM / RUN BY / DATE
                                                            END OF HEADER
18 18  1 18 22  0  0.0  .633525196463D-03 -.113686837722D-12  .000000000000D+00
     .490000000000D+02 -.226875000000D+02  .515735768179D-08  .888292376303D+00
    -.118650496006D-05  .183833074989D-01  .113565474749D-04  .515365432167D+04
     .424800000000D+06 -.314787030220D-06  .619022125785D+00 -.745058059692D-07
     .926627367761D+00  .146437500000D+03 -.175913792869D+01 -.853214111221D-08
     .339657005220D-09  .100000000000D+01  .198400000000D+04  .000000000000D+00
     .240000000000D+01  .000000000000D+00 -.111758708954D-07  .490000000000D+02
     .417606000000D+06  .400000000000D+01
19 18  1 18 22  0  0.0 -.462836585939D-03  .238742359215D-11  .000000000000D+00
     .720000000000D+02  .256250000000D+02  .436161025000D-08  .231741852402D+01
     .100955367088D-05  .972567859571D-02  .115297734737D-05  .515369367218D+04
     .424800000000D+06  .149011611938D-07 -.132544786485D+01 -.139698386192D-06
     .978994351981D+00  .366500000000D+03  .111430641405D+01 -.816748306560D-08
    -.100004165575D-10  .100000000000D+01  .198400000000D+04  .000000000000D+00
     .240000000000D+01  .000000000000D+00 -.153668224812D-07  .720000000000D+02
     .417606000000D+06  .400000000000D+01
20 18  1 18 22  0  0.0  .498647335917D-03  .102318153949D-11  .000000000000D+00
     .110000000000D+02 -.276875000000D+02  .488198906873D-08 -.175498910325D+01
    -.119395554066D-05  .454400689341D-02  .109262764454D-04  .515378317833D+04
     .424800000000D+06 -.111758708954D-07  .568032016654D+00  .782310962677D-07
     .928091491284D+00  .149718750000D+03  .177134563188D+01 -.811390940547D-08
     .433946647048D-09  .100000000000D+01  .198400000000D+04  .000000000000D+00
     .240000000000D+01  .000000000000D+00 -.838190317154D-08  .110000000000D+02
     .417606000000D+06  .400000000000D+01
21 18  1 18 22  0  0.0 -.440299976617D-03  .420641299570D-11  .000000000000D+00
     .930000000000D+02 -.127031250000D+03  .470126725522D-08  .176895247346D+01
    -.708550214767D-05  .243002709467D-01  .526383519173D-05  .515378760529D+04
     .424800000000D+06  .271946191788D-06 -.419653054726D+00 -.525265932083D-06
     .942657672973D+00  .268812500000D+03 -.160648747272D+01 -.813355308085D-08
    -.260725145963D-09  .100000000000D+01  .198400000000D+04  .000000000000D+00
     .340000000000D+01  .000000000000D+00 -.102445483208D-07  .930000000000D+02
     .417606000000D+06  .400000000000D+01
22 18  1 18 22  0  0.0 -.261496752501D-03 -.129602995003D-10  .000000000000D+00
     .230000000000D+02 -.237187500000D+02  .506663961731D-08 -.128087507117D+01
    -.105053186417D-05  .721033976879D-02  .116042792797D-04  .515361810684D+04
     .424800000000D+06 -.558793544769D-07  .618434000533D+00  .201165676117D-06
     .924761642503D+00  .136343750000D+03 -.162843142824D+01 -.824534345165D-08
     .482162941165D-09  .100000000000D+01  .198400000000D+04  .000000000000D+00
     .240000000000D+01  .000000000000D+00 -.176951289177D-07  .230000000000D+02
     .417606000000D+06  .400000000000D+01
23 18  1 18 22  0  0.0 -.219076406211D-03  .000000000000D+00  .000000000000D+00
     .210000000000D+02  .160625000000D+02  .531879297765D-08 -.197455194145D+01
     .596046447754D-06  .119073390961D-01  .471994280815D-05  .515360117340D+04
     .424800000000D+06  .143423676491D-06  .170758136597D+01 -.949949026108D-07
     .943266006975D+00  .275125000000D+03 -.240436034966D+01 -.826034407649D-08
     .423589072757D-09  .100000000000D+01  .198400000000D+04  .000000000000D+00
     .240000000000D+01  .000000000000D+00 -.200234353542D-07  .210000000000D+02
     .417606000000D+06  .400000000000D+01
25 18  1 18 22  0  0.0 -.524512492120D-03 -.613908923697D-11  .000000000000D+00
     .680000000000D+02  .992187500000D+02  .393480675764D-08  .177596200886D+01
     .513717532158D-05  .700945255812D-02  .983849167824D-05  .515370672226D+04
     .424800000000D+06 -.186264514923D-06 -.246596977528D+01 -.167638063431D-07
     .975656631238D+00  .198062500000D+03  .803460959214D+00 -.775032283206D-08
     .367872466222D-10  .100000000000D+01  .198400000000D+04  .000000000000D+00
     .240000000000D+01  .000000000000D+00  .558793544769D-08  .680000000000D+02
     .417606000000D+06  .400000000000D+01
26 18  1 18 22  0  0.0 -.282521359622D-03  .138697942020D-10  .000000000000D+00
     .890000000000D+02  .106906250000D+03  .440696928225D-08  .129336319089D+01
     .574253499508D-05  .257283449173D-02  .955909490585D-05  .515360202408D+04
     .424800000000D+06  .372529029846D-07 -.248559639834D+01  .130385160446D-07
     .957282884869D+00  .190218750000D+03 -.277874983980D-01 -.796068873750D-08
    -.489306095849D-10  .100000000000D+01  .198400000000D+04  .000000000000D+00
     .240000000000D+01  .000000000000D+00  .745058059692D-08  .890000000000D+02
     .417606000000D+06  .400000000000D+01
27 18  1 18 22  0  0.0  .363253988326D-03  .193267624127D-11  .000000000000D+00
     .550000000000D+02  .352812500000D+02  .444661379074D-08 -.551840102881D+00
     .176392495632D-05  .534113636240D-02  .132620334625D-05  .515367556763D+04
     .424800000000D+06  .109896063805D-06 -.142611008463D+01  .167638063431D-07
     .976357405571D+00  .362343750000D+03  .352192427851D+00 -.839499254228D-08
     .342871424828D-10  .100000000000D+01  .198400000000D+04  .000000000000D+00
     .240000000000D+01  .000000000000D+00  .186264514923D-08  .550000000000D+02
     .417606000000D+06  .400000000000D+01
29 18  1 18 22  0  0.0  .509215984493D-03 -.545696821064D-11  .000000000000D+00
     .120000000000D+02  .296562500000D+02  .423481925436D-08  .791397107678D+00
     .146031379700D-05  .447814702056D-03  .145472586155D-05  .515374895096D+04
     .424800000000D+06  .000000000000D+00 -.136232285236D+01  .279396772385D-07
     .982784531343D+00  .362312500000D+03  .757494738982D+00 -.820534178542D-08
     .235724104569D-10  .100000000000D+01  .198400000000D+04  .000000000000D+00
     .240000000000D+01  .000000000000D+00 -.102445483208D-07  .120000000000D+02
     .417606000000D+06  .400000000000D+01
30 18  1 18 22  0  0.0  .111388042569D-03 -.329691829393D-11  .000000000000D+00
     .120000000000D+02 -.194687500000D+02  .500199406742D-08  .293085846017D+01
    -.949949026108D-06  .302968220785D-02  .902824103832D-05  .515357839394D+04
     .424800000000D+06 -.465661287308D-07  .282175274684D+01 -.335276126862D-07
     .945674742555D+00  .199468750000D+03 -.310187601793D+01 -.810712340852D-08
    -.540022494104D-09  .100000000000D+01  .198400000000D+04  .000000000000D+00
     .240000000000D+01  .000000000000D+00  .372529029846D-08  .120000000000D+02
     .417606000000D+06  .400000000000D+01
31 18  1 18 22  0  0.0  .147732906044D-03 -.261479726760D-11  .000000000000D+00
     .900000000000D+02 -.152812500000D+02  .451197365610D-08  .259205936479D+01
    -.672414898872D-06  .884564151056D-02  .955909490585D-05  .515359376526D+04
     .424800000000D+06 -.134110450745D-06  .279823925285D+01  .162050127983D-06
     .964700158948D+00  .199343750000D+03 -.171276944841D+00 -.778460997454D-08
    -.574666794322D-09  .100000000000D+01  .198400000000D+04  .000000000000D+00
     .240000000000D+01  .000000000000D+00 -.135041773319D-07  .900000000000D+02
     .417606000000D+06  .400000000000D+01
32 18  1 18 22  0  0.0 -.532945618033D-03 -.227373675443D-12  .000000000000D+00
     .570000000000D+02  .156250000000D+02  .511807033103D-08  .187362023169D+00
     .810250639915D-06  .159177836031D-02  .490061938763D-05  .515361688995D+04
     .424800000000D+06 -.149011611938D-07  .171234345398D+01  .130385160446D-07
     .956844778940D+00  .284156250000D+03 -.270400691206D+01 -.830820321287D-08
     .221794952936D-09  .100000000000D+01  .198400000000D+04  .000000000000D+00
     .240000000000D+01  .000000000000D+00  .465661287308D-09  .570000000000D+02
     .417606000000D+06  .400000000000D+01
 3 18  1 18 21 59 44.0 -.749528408051D-05  .682121026330D-11  .000000000000D+00
     .120000000000D+02 -.233125000000D+02  .422696178421D-08  .247693931289D+01
    -.112690031528D-05  .116623635404D-02  .115577131510D-04  .515357980347D+04
     .424784000000D+06 -.558793544769D-08  .673209002040D+00  .149011611938D-07
     .960755533473D+00  .154343750000D+03  .549086204947D+00 -.777282376931D-08
     .516450083648D-09  .100000000000D+01  .198400000000D+04  .000000000000D+00
     .240000000000D+01  .000000000000D+00  .232830643654D-08  .120000000000D+02
     .418926000000D+06  .400000000000D+01
21 18  1 18 21 59 44.0 -.440301839262D-03  .420641299570D-11  .000000000000D+00
     .190000000000D+02 -.127031250000D+03  .470126725522D-08  .176661913521D+01
    -.708550214767D-05  .243002698990D-01  .526383519173D-05  .515378759384D+04
     .424784000000D+06  .271946191788D-06 -.419652925989D+00 -.525265932083D-06
     .942657675899D+00  .268812500000D+03 -.160648757512D+01 -.813355308085D-08
    -.260725145963D-09  .100000000000D+01  .198400000000D+04  .000000000000D+00
     .240000000000D+01  .000000000000D+00 -.102445483208D-07  .190000000000D+02
     .420666000000D+06  .400000000000D+01
 4 18  1 18 21 59 44.0  .330242328346D-04  .216004991671D-11  .000000000000D+00
     .400000000000D+01  .107250000000D+03  .523236080597D-08  .606095123323D+00
     .579841434956D-05  .940709747374D-02  .941380858421D-05  .515367432594D+04
     .424784000000D+06 -.763684511185D-07 -.244163009099D+01  .894069671631D-07
     .980457384168D+00  .208000000000D+03  .891507075877D+00 -.785997025645D-08
    -.389301930274D-10  .100000000000D+01  .198400000000D+04  .000000000000D+00
     .240000000000D+01  .630000000000D+02 -.195577740669D-07  .400000000000D+01
     .421296000000D+06  .400000000000D+01
